start=new Date('2022-01-05T00:00:00.000Z').valueOf();
sats=[{"BSTAR":"-0.00007341500000","MEAN_ELEMENT_THEORY":"SGP4","TLE_LINE1":"1 47657U 21012AP  22004.65263749 -.00001375  00000-0 -73415-4 0  9997","COUNTRY_CODE":"US","LAUNCH_DATE":"2021-02-16","DECAY_DATE":null,"ECCENTRICITY":"0.00012610","OBJECT_NAME":"STARLINK-2041","INCLINATION":"53.0554","FILE":"3264067","EPHEMERIS_TYPE":"0","NORAD_CAT_ID":"47657","GP_ID":"193215784","MEAN_MOTION":"15.06393957","CLASSIFICATION_TYPE":"U","TIME_SYSTEM":"UTC","EPOCH":"2022-01-04T15:39:47.879136","OBJECT_ID":"2021-012AP","MEAN_MOTION_DDOT":"0.0000000000000","REF_FRAME":"TEME","OBJECT_TYPE":"PAYLOAD","ELEMENT_SET_NO":"999","MEAN_MOTION_DOT":"-0.00001375","APOAPSIS":"548.105","SITE":"AFETR","CENTER_NAME":"EARTH","SEMIMAJOR_AXIS":"6925.367","MEAN_ANOMALY":"280.6372","TLE_LINE2":"2 47657  53.0554  77.7831 0001261  79.4759 280.6372 15.06393957 50121","PERIAPSIS":"546.359","REV_AT_EPOCH":"5012","ARG_OF_PERICENTER":"79.4759","PERIOD":"95.593","RA_OF_ASC_NODE":"77.7831","RCS_SIZE":"LARGE"},{"NORAD_CAT_ID":"47658","EPHEMERIS_TYPE":"0","GP_ID":"193214532","MEAN_MOTION":"15.06404635","CLASSIFICATION_TYPE":"U","FILE":"3264067","EPOCH":"2022-01-04T17:04:42.340224","OBJECT_ID":"2021-012AQ","TIME_SYSTEM":"UTC","MEAN_ELEMENT_THEORY":"SGP4","TLE_LINE1":"1 47658U 21012AQ  22004.71160116  .00000904  00000-0  79554-4 0  9994","BSTAR":"0.00007955400000","ECCENTRICITY":"0.00011740","OBJECT_NAME":"STARLINK-2042","INCLINATION":"53.0551","COUNTRY_CODE":"US","LAUNCH_DATE":"2021-02-16","DECAY_DATE":null,"TLE_LINE2":"2 47658  53.0551  77.5140 0001174  79.9634 280.1487 15.06404635 50151","MEAN_ANOMALY":"280.1487","CENTER_NAME":"EARTH","SEMIMAJOR_AXIS":"6925.334","RCS_SIZE":"LARGE","RA_OF_ASC_NODE":"77.5140","PERIOD":"95.592","PERIAPSIS":"546.386","ARG_OF_PERICENTER":"79.9634","REV_AT_EPOCH":"5015","OBJECT_TYPE":"PAYLOAD","REF_FRAME":"TEME","MEAN_MOTION_DDOT":"0.0000000000000","SITE":"AFETR","ELEMENT_SET_NO":"999","APOAPSIS":"548.012","MEAN_MOTION_DOT":"0.00000904"},{"RCS_SIZE":"LARGE","RA_OF_ASC_NODE":"316.5779","PERIOD":"95.590","ARG_OF_PERICENTER":"51.4133","REV_AT_EPOCH":"357","PERIAPSIS":"545.489","TLE_LINE2":"2 47659  53.0526 316.5779 0002375  51.4133 201.4005 15.06425987  3570","MEAN_ANOMALY":"201.4005","SEMIMAJOR_AXIS":"6925.269","CENTER_NAME":"EARTH","SITE":"AFETR","APOAPSIS":"548.779","MEAN_MOTION_DOT":"-0.00046786","ELEMENT_SET_NO":"999","OBJECT_TYPE":"PAYLOAD","REF_FRAME":"TEME","MEAN_MOTION_DDOT":"0.0000000000000","EPOCH":"2022-01-04T22:00:00.999936","OBJECT_ID":"2021-012AR","TIME_SYSTEM":"UTC","GP_ID":"193214782","CLASSIFICATION_TYPE":"U","MEAN_MOTION":"15.06425987","NORAD_CAT_ID":"47659","EPHEMERIS_TYPE":"0","FILE":"3264067","INCLINATION":"53.0526","OBJECT_NAME":"STARLINK-2043","ECCENTRICITY":"0.00023750","DECAY_DATE":null,"LAUNCH_DATE":"2021-02-16","COUNTRY_CODE":"US","TLE_LINE1":"1 47659U 21012AR  22004.91667824 -.00046786  00000-0 -31403-2 0  9994","MEAN_ELEMENT_THEORY":"SGP4","BSTAR":"-0.00314030000000"},{"PERIOD":"95.030","RA_OF_ASC_NODE":"306.7949","RCS_SIZE":"LARGE","PERIAPSIS":"518.774","REV_AT_EPOCH":"362","ARG_OF_PERICENTER":"37.5887","MEAN_ANOMALY":"325.2469","TLE_LINE2":"2 47660  53.0548 306.7949 0001824  37.5887 325.2469 15.15312323  3629","CENTER_NAME":"EARTH","SEMIMAJOR_AXIS":"6898.168","SITE":"AFETR","ELEMENT_SET_NO":"999","MEAN_MOTION_DOT":"-0.00615568","APOAPSIS":"521.291","OBJECT_TYPE":"PAYLOAD","MEAN_MOTION_DDOT":"0.0000000000000","REF_FRAME":"TEME","TIME_SYSTEM":"UTC","EPOCH":"2022-01-04T22:00:00.999936","OBJECT_ID":"2021-012AS","EPHEMERIS_TYPE":"0","NORAD_CAT_ID":"47660","GP_ID":"193215534","CLASSIFICATION_TYPE":"U","MEAN_MOTION":"15.15312323","FILE":"3264067","ECCENTRICITY":"0.00018240","INCLINATION":"53.0548","OBJECT_NAME":"STARLINK-2044","COUNTRY_CODE":"US","LAUNCH_DATE":"2021-02-16","DECAY_DATE":null,"MEAN_ELEMENT_THEORY":"SGP4","TLE_LINE1":"1 47660U 21012AS  22004.91667824 -.00615568  00000-0 -34677-1 0  9991","BSTAR":"-0.03467700000000"},{"MEAN_ANOMALY":"275.7458","TLE_LINE2":"2 47661  53.0553  57.9583 0001306  84.3680 275.7458 15.06397929 50388","CENTER_NAME":"EARTH","SEMIMAJOR_AXIS":"6925.355","RA_OF_ASC_NODE":"57.9583","PERIOD":"95.592","RCS_SIZE":"LARGE","PERIAPSIS":"546.315","REV_AT_EPOCH":"5038","ARG_OF_PERICENTER":"84.3680","OBJECT_TYPE":"PAYLOAD","MEAN_MOTION_DDOT":"0.0000000000000","REF_FRAME":"TEME","SITE":"AFETR","ELEMENT_SET_NO":"999","MEAN_MOTION_DOT":"-0.00000647","APOAPSIS":"548.124","NORAD_CAT_ID":"47661","EPHEMERIS_TYPE":"0","CLASSIFICATION_TYPE":"U","GP_ID":"193216284","MEAN_MOTION":"15.06397929","FILE":"3264067","TIME_SYSTEM":"UTC","OBJECT_ID":"2021-012AT","EPOCH":"2022-01-04T14:38:45.134304","MEAN_ELEMENT_THEORY":"SGP4","TLE_LINE1":"1 47661U 21012AT  22004.61024461 -.00000647  00000-0 -24576-4 0  9999","BSTAR":"-0.00002457600000","ECCENTRICITY":"0.00013060","OBJECT_NAME":"STARLINK-2051","INCLINATION":"53.0553","LAUNCH_DATE":"2021-02-16","COUNTRY_CODE":"US","DECAY_DATE":null},{"APOAPSIS":"548.141","MEAN_MOTION_DOT":"0.00002470","ELEMENT_SET_NO":"999","SITE":"AFETR","REF_FRAME":"TEME","MEAN_MOTION_DDOT":"0.0000000000000","OBJECT_TYPE":"PAYLOAD","ARG_OF_PERICENTER":"82.3173","REV_AT_EPOCH":"5038","PERIAPSIS":"546.262","RCS_SIZE":"LARGE","PERIOD":"95.592","RA_OF_ASC_NODE":"58.6523","SEMIMAJOR_AXIS":"6925.337","CENTER_NAME":"EARTH","TLE_LINE2":"2 47662  53.0542  58.6523 0001357  82.3173 277.7970 15.06403876 50380","MEAN_ANOMALY":"277.7970","DECAY_DATE":null,"COUNTRY_CODE":"US","LAUNCH_DATE":"2021-02-16","INCLINATION":"53.0542","OBJECT_NAME":"STARLINK-2052","ECCENTRICITY":"0.00013570","BSTAR":"0.00018466000000","TLE_LINE1":"1 47662U 21012AU  22004.45817652  .00002470  00000-0  18466-3 0  9998","MEAN_ELEMENT_THEORY":"SGP4","OBJECT_ID":"2021-012AU","EPOCH":"2022-01-04T10:59:46.451328","TIME_SYSTEM":"UTC","FILE":"3263295","CLASSIFICATION_TYPE":"U","GP_ID":"193180930","MEAN_MOTION":"15.06403876","NORAD_CAT_ID":"47662","EPHEMERIS_TYPE":"0"},{"OBJECT_TYPE":"PAYLOAD","REF_FRAME":"TEME","MEAN_MOTION_DDOT":"0.0000000000000","SITE":"AFETR","APOAPSIS":"548.284","MEAN_MOTION_DOT":"-0.00027156","ELEMENT_SET_NO":"999","TLE_LINE2":"2 47663  53.0574 336.5852 0001620  71.2101  76.7383 15.06416821  3589","MEAN_ANOMALY":"76.7383","SEMIMAJOR_AXIS":"6925.297","CENTER_NAME":"EARTH","RCS_SIZE":"LARGE","PERIOD":"95.591","RA_OF_ASC_NODE":"336.5852","ARG_OF_PERICENTER":"71.2101","REV_AT_EPOCH":"358","PERIAPSIS":"546.040","TLE_LINE1":"1 47663U 21012AV  22004.91667824 -.00027156  00000-0 -18103-2 0  9991","MEAN_ELEMENT_THEORY":"SGP4","BSTAR":"-0.00181030000000","OBJECT_NAME":"STARLINK-2053","INCLINATION":"53.0574","ECCENTRICITY":"0.00016200","DECAY_DATE":null,"LAUNCH_DATE":"2021-02-16","COUNTRY_CODE":"US","GP_ID":"193215282","MEAN_MOTION":"15.06416821","CLASSIFICATION_TYPE":"U","NORAD_CAT_ID":"47663","EPHEMERIS_TYPE":"0","FILE":"3264067","EPOCH":"2022-01-04T22:00:00.999936","OBJECT_ID":"2021-012AV","TIME_SYSTEM":"UTC"},{"PERIAPSIS":"546.212","ARG_OF_PERICENTER":"80.0903","REV_AT_EPOCH":"5038","RCS_SIZE":"LARGE","RA_OF_ASC_NODE":"58.6527","PERIOD":"95.592","CENTER_NAME":"EARTH","SEMIMAJOR_AXIS":"6925.344","TLE_LINE2":"2 47664  53.0551  58.6527 0001440  80.0903 280.0249 15.06401556 50384","MEAN_ANOMALY":"280.0249","ELEMENT_SET_NO":"999","APOAPSIS":"548.206","MEAN_MOTION_DOT":"0.00001032","SITE":"AFETR","REF_FRAME":"TEME","MEAN_MOTION_DDOT":"0.0000000000000","OBJECT_TYPE":"PAYLOAD","EPOCH":"2022-01-04T11:01:07.815072","OBJECT_ID":"2021-012AW","TIME_SYSTEM":"UTC","FILE":"3263295","EPHEMERIS_TYPE":"0","NORAD_CAT_ID":"47664","GP_ID":"193179429","MEAN_MOTION":"15.06401556","CLASSIFICATION_TYPE":"U","COUNTRY_CODE":"US","LAUNCH_DATE":"2021-02-16","DECAY_DATE":null,"ECCENTRICITY":"0.00014400","INCLINATION":"53.0551","OBJECT_NAME":"STARLINK-2054","BSTAR":"0.00008814100000","MEAN_ELEMENT_THEORY":"SGP4","TLE_LINE1":"1 47664U 21012AW  22004.45911823  .00001032  00000-0  88141-4 0  9996"},{"RCS_SIZE":"LARGE","RA_OF_ASC_NODE":"52.8529","PERIOD":"95.592","PERIAPSIS":"544.495","ARG_OF_PERICENTER":"145.9973","REV_AT_EPOCH":"5047","TLE_LINE2":"2 47665  53.0557  52.8529 0003939 145.9973 214.1269 15.06397052 50477","MEAN_ANOMALY":"214.1269","CENTER_NAME":"EARTH","SEMIMAJOR_AXIS":"6925.358","SITE":"AFETR","ELEMENT_SET_NO":"999","APOAPSIS":"549.950","MEAN_MOTION_DOT":"0.00000943","OBJECT_TYPE":"PAYLOAD","REF_FRAME":"TEME","MEAN_MOTION_DDOT":"0.0000000000000","OBJECT_ID":"2021-012AX","EPOCH":"2022-01-04T15:12:33.795072","TIME_SYSTEM":"UTC","NORAD_CAT_ID":"47665","EPHEMERIS_TYPE":"0","GP_ID":"193215785","MEAN_MOTION":"15.06397052","CLASSIFICATION_TYPE":"U","FILE":"3264067","ECCENTRICITY":"0.00039390","OBJECT_NAME":"STARLINK-2056","INCLINATION":"53.0557","COUNTRY_CODE":"US","LAUNCH_DATE":"2021-02-16","DECAY_DATE":null,"MEAN_ELEMENT_THEORY":"SGP4","TLE_LINE1":"1 47665U 21012AX  22004.63372448  .00000943  00000-0  82243-4 0  9998","BSTAR":"0.00008224300000"},{"ECCENTRICITY":"0.00013220","INCLINATION":"53.0562","OBJECT_NAME":"STARLINK-2057","LAUNCH_DATE":"2021-02-16","COUNTRY_CODE":"US","DECAY_DATE":null,"MEAN_ELEMENT_THEORY":"SGP4","TLE_LINE1":"1 47666U 21012AY  22004.53421108  .00000622  00000-0  60628-4 0  9993","BSTAR":"0.00006062800000","TIME_SYSTEM":"UTC","OBJECT_ID":"2021-012AY","EPOCH":"2022-01-04T12:49:15.837312","NORAD_CAT_ID":"47666","EPHEMERIS_TYPE":"0","MEAN_MOTION":"15.06397303","GP_ID":"193180431","CLASSIFICATION_TYPE":"U","FILE":"3263295","SITE":"AFETR","ELEMENT_SET_NO":"999","MEAN_MOTION_DOT":"0.00000622","APOAPSIS":"548.137","OBJECT_TYPE":"PAYLOAD","MEAN_MOTION_DDOT":"0.0000000000000","REF_FRAME":"TEME","PERIOD":"95.592","RA_OF_ASC_NODE":"53.3066","RCS_SIZE":"MEDIUM","PERIAPSIS":"546.306","REV_AT_EPOCH":"5046","ARG_OF_PERICENTER":"81.2134","MEAN_ANOMALY":"278.9005","TLE_LINE2":"2 47666  53.0562  53.3066 0001322  81.2134 278.9005 15.06397303 50465","CENTER_NAME":"EARTH","SEMIMAJOR_AXIS":"6925.357"}];
